IRIDIUM 921 [-]         
1 24873U 97034E   23261.91882194  .00021797  00000+0  86922-3 0  9998
2 24873  86.3847  61.1705 0005057 187.5362 172.5809 15.25067365433519
IRIDIUM 26 [-]          
1 24903U 97043A   23261.83865261  .00000718  00000+0  24065-3 0  9999
2 24903  86.4012  17.9982 0002244  88.6939 271.4515 14.35996820365244
IRIDIUM 22 [-]          
1 24907U 97043E   23261.89468896  .00000453  00000+0  15250-3 0  9994
2 24907  86.4013  20.9941 0002099  94.6359 265.5077 14.34904272365357
DUMMY MASS 2 [-]        
1 24926U 97048B   23261.87162912  .00000710  00000+0  78911-4 0  9998
2 24926  86.3302  71.2497 0005485 248.9366 111.1272 14.85583767410258
IRIDIUM 29 [-]          
1 24944U 97051A   23261.91420221  .00000591  00000+0  19921-3 0  9999
2 24944  86.3947  50.9787 0002118  98.1070 262.0366 14.35368538361826
IRIDIUM 33 [-]          
1 24946U 97051C   23261.90417903  .00000495  00000+0  16986-3 0  9994
2 24946  86.3864  50.2619 0008043  12.9613 347.1788 14.34108883361381
IRIDIUM 28 [-]          
1 24948U 97051E   23261.88796741  .00000731  00000+0  24351-3 0  9991
2 24948  86.3958  48.8712 0002193  81.1333 279.0112 14.36289636362339
